{"type":"FeatureCollection","features":[{"type":"Feature","properties":{"name":"Sea of Galilee"},"geometry":{"type":"Polygon","coordinates":[[[35.6376,32.875],[35.6409,32.7723],[35.6341,32.7522],[35.5994,32.7178],[35.577,32.7202],[35.5664,32.757],[35.5493,32.7696],[35.5172,32.8208],[35.5237,32.852],[35.5549,32.8806],[35.5917,32.898],[35.6135,32.8959],[35.6376,32.875]]]}},{"type":"Feature","properties":{"name":"Lake Sevan"},"geometry":{"type":"Polygon","coordinates":[[[45.0387,40.4964],[44.9719,40.507],[44.9604,40.5196],[44.9666,40.537],[45.0125,40.5582],[45.0049,40.5744],[44.9775,40.5906],[44.9749,40.6153],[44.9863,40.6274],[45.0908,40.6021],[45.1,40.5903],[45.2218,40.5335],[45.2969,40.4793],[45.2963,40.4613],[45.3031,40.4575],[45.3508,40.4478],[45.3596,40.4593],[45.3505,40.4675],[45.3578,40.4887],[45.4061,40.4681],[45.4909,40.3857],[45.5836,40.3454],[45.6493,40.275],[45.6663,40.2247],[45.6616,40.2011],[45.6301,40.1708],[45.563,40.1717],[45.5086,40.1461],[45.4441,40.1661],[45.3805,40.1393],[45.286,40.1476],[45.2542,40.1679],[45.2333,40.1997],[45.2207,40.2418],[45.2266,40.3719],[45.2071,40.3998],[45.1659,40.3863],[45.1285,40.3998],[45.1215,40.4496],[45.0908,40.454],[45.0387,40.4964]]]}},{"type":"Feature","properties":{"name":"Lake Skadar"},"geometry":{"type":"Polygon","coordinates":[[[19.475,42.0721],[19.4823,42.0653],[19.4238,42.0718],[19.372,42.088],[19.2477,42.1439],[19.2083,42.1766],[19.1918,42.2234],[19.1677,42.234],[19.1059,42.2358],[19.1194,42.2434],[19.1088,42.2549],[19.1059,42.2843],[19.0779,42.3058],[19.0914,42.3108],[19.1459,42.2708],[19.1659,42.2776],[19.1809,42.2637],[19.2274,42.2705],[19.3372,42.2552],[19.3449,42.2708],[19.3249,42.2637],[19.3175,42.2843],[19.3652,42.2802],[19.3796,42.3102],[19.4347,42.3388],[19.3784,42.2682],[19.3658,42.2311],[19.3993,42.1949],[19.4264,42.1872],[19.4491,42.1566],[19.4785,42.1413],[19.475,42.0721]]]}},{"type":"Feature","properties":{"name":"Lake Habbaniyah"},"geometry":{"type":"Polygon","coordinates":[[[43.4162,33.2521],[43.3044,33.3048],[43.2873,33.3215],[43.2952,33.3489],[43.3388,33.3601],[43.3567,33.3757],[43.3709,33.4446],[43.4256,33.4166],[43.4339,33.3675],[43.4498,33.3619],[43.4819,33.3295],[43.4904,33.3351],[43.5113,33.3271],[43.5292,33.3557],[43.5702,33.3374],[43.5969,33.293],[43.5805,33.2474],[43.549,33.2112],[43.5128,33.2073],[43.501,33.1947],[43.4665,33.1838],[43.4289,33.2011],[43.4268,33.2097],[43.438,33.222],[43.4324,33.2315],[43.4465,33.2521],[43.4162,33.2521]]]}},{"type":"Feature","properties":{"name":"Buhayrat ath Tharthar"},"geometry":{"type":"Polygon","coordinates":[[[43.2914,33.7198],[43.2746,33.7325],[43.2611,33.7183],[43.2352,33.7478],[43.2228,33.7516],[43.2007,33.7816],[43.2131,33.7863],[43.2078,33.7949],[43.1722,33.8205],[43.1369,33.8614],[43.0783,33.9468],[43.0886,33.973],[43.0762,33.9789],[43.083,33.9933],[43.0692,33.9933],[43.0692,33.9995],[43.083,34.0118],[43.0792,34.0545],[43.0898,34.0751],[43.0677,34.0854],[43.0642,34.1046],[43.0762,34.1496],[43.0753,34.1767],[43.0512,34.2535],[43.0589,34.2768],[43.0803,34.295],[43.0765,34.343],[43.0865,34.3489],[43.103,34.3339],[43.1101,34.308],[43.1177,34.308],[43.1148,34.3459],[43.1407,34.3165],[43.1519,34.3141],[43.1451,34.308],[43.1563,34.2971],[43.1569,34.2829],[43.1451,34.2526],[43.1689,34.2391],[43.191,34.1829],[43.2166,34.1602],[43.2196,34.1434],[43.2405,34.1366],[43.2575,34.1122],[43.2952,34.1019],[43.2952,34.0675],[43.3226,34.0948],[43.3329,34.058],[43.3294,34.0472],[43.3573,34.0416],[43.3635,34.0124],[43.3947,34.0368],[43.4124,34.036],[43.4392,34.0124],[43.4465,33.9653],[43.4774,33.9518],[43.4807,33.9379],[43.4954,33.9394],[43.5033,33.9244],[43.5075,33.8758],[43.4821,33.8835],[43.453,33.8758],[43.488,33.8673],[43.5148,33.8479],[43.4945,33.8555],[43.4727,33.8479],[43.4795,33.8426],[43.4695,33.8017],[43.4945,33.7766],[43.4889,33.7425],[43.4665,33.7045],[43.4418,33.693],[43.3874,33.7113],[43.3229,33.7204],[43.3088,33.7325],[43.2914,33.7198]]]}},{"type":"Feature","properties":{"name":"Lake Nasser"},"geometry":{"type":"Polygon","coordinates":[[[32.2277,22.6514],[32.2483,22.6785],[32.2112,22.6929],[32.2215,22.7059],[32.2054,22.708],[32.1662,22.7333],[32.1326,22.73],[32.077,22.7044],[32.0776,22.6924],[32.0558,22.6897],[32.0443,22.6709],[32.057,22.6376],[32.0205,22.6517],[32.0043,22.6485],[31.9696,22.6146],[31.9813,22.5619],[31.944,22.5784],[31.9401,22.5619],[31.9746,22.4937],[31.9513,22.4972],[31.9348,22.4786],[31.9036,22.4666],[31.8948,22.4507],[31.8924,22.4112],[31.8118,22.4183],[31.8242,22.4042],[31.8168,22.3968],[31.8409,22.3786],[31.8451,22.3641],[31.838,22.3497],[31.8224,22.3415],[31.7965,22.3703],[31.7688,22.3762],[31.7414,22.3712],[31.6864,22.3424],[31.6973,22.3262],[31.6932,22.3182],[31.6661,22.3359],[31.6593,22.3088],[31.6461,22.3223],[31.6378,22.3038],[31.6181,22.295],[31.6484,22.2729],[31.6617,22.2473],[31.6864,22.2467],[31.6678,22.2402],[31.6113,22.2535],[31.5424,22.2125],[31.5424,22.1919],[31.5316,22.1969],[31.5177,22.1896],[31.44,22.1266],[31.3926,22.053],[31.3834,22.0],[31.3441,22.0],[31.3443,22.0477],[31.3661,22.1092],[31.3582,22.1437],[31.3811,22.1463],[31.4009,22.1604],[31.4444,22.2211],[31.5151,22.2602],[31.6593,22.3839],[31.6461,22.3906],[31.6937,22.4042],[31.6728,22.4595],[31.689,22.4636],[31.73,22.4477],[31.7559,22.4695],[31.7485,22.4937],[31.8112,22.4728],[31.8168,22.4937],[31.7382,22.5316],[31.6693,22.5923],[31.6561,22.614],[31.6678,22.6367],[31.6661,22.6514],[31.6905,22.6208],[31.7453,22.6026],[31.7829,22.5631],[31.8242,22.5749],[31.8448,22.5619],[31.8562,22.5773],[31.838,22.5831],[31.8389,22.6005],[31.8474,22.6132],[31.8895,22.6288],[31.8786,22.652],[31.9331,22.6626],[31.9575,22.677],[32.0025,22.7265],[31.9949,22.7333],[32.0623,22.7403],[32.0638,22.7674],[32.0906,22.7542],[32.1041,22.7559],[32.1282,22.778],[32.1583,22.7857],[32.1662,22.8083],[32.1662,22.7748],[32.2048,22.7674],[32.2257,22.7695],[32.2419,22.7815],[32.266,22.7297],[32.2898,22.7127],[32.2863,22.6885],[32.3104,22.6717],[32.3104,22.6438],[32.3511,22.6279],[32.3867,22.6467],[32.4235,22.7165],[32.5041,22.7586],[32.5162,22.7748],[32.5459,22.7659],[32.5598,22.7857],[32.5718,22.8857],[32.5506,22.932],[32.5836,22.9193],[32.5992,22.9234],[32.6278,22.9505],[32.6369,22.9855],[32.6254,22.9941],[32.651,23.0312],[32.6425,23.0556],[32.6805,23.0709],[32.6596,23.0759],[32.6596,23.0833],[32.6813,23.0856],[32.6937,23.1015],[32.6961,23.1236],[32.6869,23.1448],[32.6958,23.1545],[32.7008,23.1925],[32.7249,23.196],[32.7211,23.2199],[32.7691,23.2781],[32.78,23.2796],[32.7894,23.2608],[32.8103,23.2902],[32.8312,23.2608],[32.8427,23.2761],[32.8268,23.2967],[32.825,23.3093],[32.8329,23.3188],[32.8653,23.3296],[32.893,23.2887],[32.9054,23.2943],[32.9095,23.3064],[32.9068,23.3296],[32.8942,23.3497],[32.8444,23.3844],[32.825,23.385],[32.88,23.4665],[32.8856,23.4865],[32.8794,23.5004],[32.8656,23.5001],[32.8212,23.473],[32.8073,23.4792],[32.7797,23.5248],[32.762,23.5254],[32.749,23.5351],[32.7211,23.5142],[32.7149,23.4901],[32.6451,23.4583],[32.6139,23.4692],[32.5574,23.508],[32.646,23.5316],[32.6666,23.549],[32.6869,23.5422],[32.7393,23.5616],[32.7249,23.5731],[32.6919,23.5793],[32.6796,23.6011],[32.6649,23.6008],[32.6543,23.5872],[32.6596,23.5625],[32.6369,23.564],[32.621,23.576],[32.6125,23.5952],[32.6119,23.6178],[32.6369,23.6116],[32.6737,23.6649],[32.7014,23.6791],[32.7111,23.6758],[32.7393,23.6111],[32.7764,23.5905],[32.7985,23.5646],[32.8206,23.5666],[32.8106,23.5905],[32.8412,23.6105],[32.8653,23.7064],[32.8524,23.6964],[32.8173,23.7203],[32.853,23.7161],[32.8715,23.7379],[32.8794,23.8089],[32.87,23.8421],[32.8312,23.886],[32.7832,23.8984],[32.805,23.906],[32.8347,23.8966],[32.8515,23.9119],[32.8794,23.9878],[32.8895,23.9669],[32.8794,23.9187],[32.8992,23.8916],[32.893,23.8642],[32.9295,23.8212],[32.9404,23.7783],[32.9892,23.7544],[32.9704,23.7529],[32.9731,23.7403],[33.0028,23.7132],[32.9825,23.6929],[32.9954,23.6826],[32.9825,23.6723],[32.9751,23.624],[32.9601,23.6378],[32.933,23.6464],[32.9271,23.6587],[32.9024,23.6222],[32.8962,23.5905],[32.9174,23.5796],[32.9348,23.5551],[32.9545,23.5693],[32.9477,23.5422],[32.9686,23.549],[32.9731,23.5298],[32.991,23.5177],[33.0128,23.5145],[33.0302,23.5216],[33.0372,23.5142],[32.9937,23.4995],[32.8953,23.5222],[32.8992,23.5004],[32.9351,23.4762],[32.9204,23.4595],[32.9583,23.4247],[32.9477,23.4185],[32.9542,23.3979],[32.9663,23.39],[32.9745,23.3944],[32.9686,23.4118],[32.9845,23.4115],[32.9925,23.4032],[33.0028,23.3776],[32.9725,23.3629],[32.9704,23.3517],[32.9919,23.327],[33.0184,23.3261],[32.9981,23.2758],[33.0166,23.2405],[33.0081,23.2234],[32.9925,23.2219],[32.9545,23.234],[32.9613,23.2546],[32.9204,23.2608],[32.9068,23.234],[32.9204,23.2287],[32.9704,23.1445],[32.9577,23.138],[32.863,23.1683],[32.8447,23.151],[32.8447,23.1371],[32.8727,23.0691],[32.9006,23.065],[32.9469,23.03],[32.9442,23.0179],[32.9227,23.002],[32.9318,22.9805],[32.9477,22.9864],[32.9572,22.9714],[33.0093,22.959],[33.0643,22.9181],[33.0007,22.9205],[32.941,22.9455],[32.941,22.9181],[32.928,22.9249],[32.8856,22.9652],[32.7997,23.0247],[32.7764,23.0279],[32.7764,23.0691],[32.7284,23.0485],[32.747,23.0353],[32.7417,23.0144],[32.7555,23.0144],[32.744,23.0003],[32.7284,23.0076],[32.7287,22.9702],[32.7149,22.932],[32.7043,22.9508],[32.6925,22.9555],[32.6866,22.9464],[32.6937,22.9249],[32.6563,22.932],[32.6254,22.9181],[32.6342,22.904],[32.6325,22.8902],[32.6119,22.9181],[32.603,22.9066],[32.5983,22.8637],[32.6151,22.8651],[32.6195,22.8463],[32.5983,22.8301],[32.5963,22.7818],[32.5851,22.7606],[32.5659,22.7409],[32.4885,22.7156],[32.4818,22.6985],[32.4497,22.6885],[32.4235,22.6611],[32.3993,22.6029],[32.3313,22.6029],[32.3178,22.5346],[32.3443,22.5284],[32.3266,22.5199],[32.2863,22.5413],[32.2645,22.5225],[32.2504,22.5266],[32.2419,22.5552],[32.2695,22.5581],[32.2934,22.5708],[32.3104,22.5911],[32.3178,22.6167],[32.276,22.6102],[32.2831,22.6308],[32.266,22.6344],[32.2424,22.6532],[32.2277,22.6514]]]}},{"type":"Feature","properties":{"name":"Syvash"},"geometry":{"type":"MultiPolygon","coordinates":[[[[35.3877,45.3066],[35.441,45.2922],[35.4554,45.2792],[35.4336,45.2612],[35.4045,45.2512],[35.3865,45.2565],[35.3498,45.2854],[35.2349,45.3145],[35.1934,45.3366],[35.1617,45.3404],[35.1228,45.3325],[35.0519,45.3749],[35.0103,45.4299],[35.056,45.4396],[35.0878,45.4579],[35.0957,45.4744],[35.0669,45.5615],[35.043,45.5777],[35.0339,45.6048],[35.0033,45.6218],[34.9768,45.6631],[34.9656,45.6689],[34.9003,45.6689],[34.8723,45.6969],[34.839,45.7037],[34.8723,45.7372],[34.7916,45.7172],[34.7372,45.7284],[34.716,45.7243],[34.7648,45.7837],[34.7501,45.8061],[34.7242,45.8132],[34.6471,45.7855],[34.6804,45.8482],[34.7472,45.8582],[34.7569,45.8776],[34.7501,45.9024],[34.7072,45.8715],[34.6477,45.8588],[34.5464,45.7926],[34.4617,45.772],[34.4617,45.7787],[34.5032,45.7999],[34.5208,45.8297],[34.5411,45.8394],[34.5461,45.8629],[34.5915,45.8771],[34.6227,45.9038],[34.6327,45.925],[34.6268,45.9474],[34.5441,45.9707],[34.5753,45.9392],[34.5788,45.9297],[34.5691,45.9183],[34.5305,45.9197],[34.4999,45.8785],[34.4881,45.8756],[34.4617,45.9097],[34.4826,45.9297],[34.4655,45.9362],[34.4449,45.9324],[34.4278,45.9192],[34.4116,45.8647],[34.4069,45.8956],[34.3795,45.8818],[34.3866,45.9024],[34.3592,45.8818],[34.3728,45.9197],[34.4069,45.9365],[34.4107,45.9562],[34.3592,45.9848],[34.3866,45.9916],[34.3787,46.0],[34.465,46.0],[34.4725,45.993],[34.4617,45.9707],[34.4828,45.9668],[34.5143,45.9948],[34.5553,45.9824],[34.5778,46.0],[34.8062,46.0],[34.8155,45.9356],[34.8479,45.913],[34.8255,45.8956],[34.8328,45.8818],[34.8114,45.8179],[34.8458,45.8214],[34.8723,45.8544],[34.8947,45.8464],[34.9109,45.8303],[34.9421,45.759],[34.9771,45.7178],[34.9998,45.6748],[35.0239,45.6628],[35.0845,45.5871],[35.1269,45.553],[35.3383,45.3401],[35.3668,45.3304],[35.3877,45.3066]]],[[[34.3201,46.0],[34.3083,45.9969],[34.2959,46.0],[34.3201,46.0]]],[[[34.2008,45.9886],[34.1961,45.9501],[34.1537,45.9365],[34.1281,45.9548],[34.1128,45.9848],[34.1446,45.9789],[34.1673,45.9916],[34.1642,46.0],[34.1954,46.0],[34.2008,45.9886]]]]}},{"type":"Feature","properties":{"name":"Lake Razazah"},"geometry":{"type":"Polygon","coordinates":[[[43.8981,32.704],[43.8863,32.6018],[43.8021,32.5462],[43.7689,32.5053],[43.7574,32.5173],[43.7409,32.5117],[43.7488,32.5262],[43.7347,32.5606],[43.7135,32.5462],[43.7067,32.5668],[43.7,32.5606],[43.6823,32.5665],[43.6691,32.5332],[43.6564,32.5382],[43.6517,32.5503],[43.652,32.5806],[43.6794,32.5806],[43.6638,32.588],[43.6111,32.5742],[43.6311,32.5948],[43.5837,32.6077],[43.5737,32.5909],[43.5378,32.5956],[43.4989,32.6124],[43.4451,32.6792],[43.4292,32.7104],[43.4392,32.7313],[43.4256,32.7381],[43.4348,32.7528],[43.4115,32.807],[43.4256,32.7996],[43.4495,32.8367],[43.4465,32.8479],[43.4321,32.8423],[43.405,32.8759],[43.4392,32.8888],[43.4727,32.8759],[43.4554,32.8891],[43.4698,32.9097],[43.4869,32.913],[43.4945,32.9442],[43.453,32.9851],[43.4869,33.026],[43.5045,33.0181],[43.526,33.0331],[43.5216,33.1046],[43.5348,33.1149],[43.5351,33.0737],[43.5554,33.0398],[43.6246,33.0125],[43.6161,32.9901],[43.7321,32.7755],[43.7544,32.7522],[43.7956,32.7449],[43.8263,32.7246],[43.8981,32.704]]]}},{"type":"Feature","properties":{"name":"Dead Sea"},"geometry":{"type":"Polygon","coordinates":[[[35.5864,31.7529],[35.5882,31.7305],[35.5546,31.5383],[35.572,31.4682],[35.5446,31.354],[35.5476,31.3319],[35.5237,31.3102],[35.5037,31.3063],[35.5105,31.3676],[35.4913,31.367],[35.4422,31.3222],[35.4148,31.3266],[35.406,31.3449],[35.3936,31.4358],[35.4007,31.4723],[35.3927,31.5141],[35.4148,31.5663],[35.408,31.6148],[35.4766,31.7305],[35.5069,31.7558],[35.559,31.7655],[35.5864,31.7529]]]}},{"type":"Feature","properties":{"name":"Lake Urmia"},"geometry":{"type":"Polygon","coordinates":[[[45.9104,37.3888],[45.9089,37.3629],[45.8756,37.3741],[45.8347,37.3561],[45.8238,37.3499],[45.8141,37.3231],[45.7485,37.2849],[45.7175,37.2855],[45.7025,37.2943],[45.6952,37.3072],[45.7005,37.3231],[45.6596,37.3096],[45.6236,37.264],[45.6183,37.1927],[45.6001,37.1497],[45.5851,37.1315],[45.5668,37.1238],[45.5324,37.1445],[45.5121,37.1445],[45.5038,37.1427],[45.5018,37.13],[45.4629,37.1212],[45.3958,37.1963],[45.372,37.1995],[45.3564,37.2107],[45.3384,37.2519],[45.3169,37.2651],[45.3031,37.3361],[45.2825,37.3635],[45.3072,37.372],[45.3243,37.3908],[45.2925,37.4747],[45.2622,37.5045],[45.2825,37.556],[45.2822,37.5736],[45.2486,37.6042],[45.2628,37.6148],[45.2348,37.669],[45.2622,37.6958],[45.253,37.7603],[45.2207,37.8059],[45.1833,37.823],[45.1689,37.8386],[45.1456,37.8297],[45.0599,37.8577],[45.0479,37.954],[45.0599,37.9878],[45.0914,38.0152],[45.1812,38.0384],[45.1933,38.0593],[45.1995,38.1135],[45.173,38.1524],[45.1727,38.1659],[45.1659,38.1659],[45.1544,38.1412],[45.14,38.13],[45.125,38.135],[45.1115,38.1591],[45.0505,38.1264],[45.0287,38.1244],[45.0037,38.1379],[44.9975,38.1594],[45.0037,38.1756],[45.0152,38.1724],[45.0332,38.2033],[45.0493,38.2071],[45.0473,38.2504],[45.0941,38.268],[45.3084,38.2725],[45.3617,38.266],[45.4847,38.1659],[45.4935,38.1565],[45.5027,38.0955],[45.4738,38.0426],[45.4862,38.0334],[45.4768,38.0034],[45.4879,37.9878],[45.4538,37.9737],[45.4676,37.9601],[45.4341,37.936],[45.4061,37.901],[45.4129,37.8159],[45.4217,37.7982],[45.4535,37.7614],[45.4791,37.7505],[45.4941,37.7273],[45.518,37.7376],[45.5221,37.7614],[45.6454,37.7673],[45.742,37.7117],[45.7555,37.7273],[45.7605,37.6996],[45.7967,37.6652],[45.7897,37.6413],[45.7729,37.6343],[45.6599,37.6405],[45.6781,37.6216],[45.7052,37.6134],[45.714,37.5763],[45.7258,37.5639],[45.7658,37.5315],[45.7929,37.5259],[45.8315,37.45],[45.8571,37.4235],[45.8903,37.4091],[45.9104,37.3888]],[[45.5577,37.3405],[45.5297,37.397],[45.5297,37.407],[45.5427,37.412],[45.5383,37.4229],[45.5106,37.4394],[45.4968,37.4365],[45.4941,37.4262],[45.5086,37.412],[45.4838,37.4003],[45.5018,37.3847],[45.5324,37.3741],[45.5427,37.3437],[45.5577,37.3405]],[[45.6663,37.4803],[45.664,37.5018],[45.6042,37.508],[45.5892,37.5283],[45.5668,37.5068],[45.5701,37.4945],[45.5639,37.4871],[45.6042,37.4721],[45.6116,37.4597],[45.6525,37.4871],[45.6663,37.4803]]]}},{"type":"Feature","properties":{"name":"Lake Tuz"},"geometry":{"type":"Polygon","coordinates":[[[33.4205,38.9545],[33.4343,38.9133],[33.4137,38.8677],[33.4261,38.8506],[33.5468,38.7529],[33.5553,38.7611],[33.5474,38.8038],[33.5715,38.8918],[33.5783,38.8918],[33.5842,38.8465],[33.6295,38.7864],[33.6439,38.7314],[33.6863,38.6595],[33.6987,38.6469],[33.7428,38.6383],[33.7428,38.631],[33.711,38.6216],[33.6295,38.6151],[33.5989,38.5974],[33.59,38.5506],[33.5683,38.5318],[33.5415,38.4844],[33.517,38.4982],[33.4979,38.5288],[33.4626,38.5389],[33.4208,38.5633],[33.3548,38.5827],[33.2966,38.6383],[33.1532,38.7072],[33.1385,38.7381],[33.1467,38.7794],[33.2021,38.9047],[33.2194,38.9203],[33.3225,38.9383],[33.3325,38.9574],[33.3325,38.9954],[33.3039,39.0493],[33.3178,39.0908],[33.283,39.1317],[33.3381,39.1523],[33.4423,39.0449],[33.4726,38.981],[33.4205,38.9545]]]}},{"type":"Feature","properties":{"name":"Lake Van"},"geometry":{"type":"Polygon","coordinates":[[[43.1042,38.3143],[43.0191,38.3166],[42.9944,38.3354],[42.9455,38.3366],[42.9352,38.344],[42.9532,38.3775],[42.9361,38.3928],[42.9184,38.392],[42.8978,38.4058],[42.9049,38.4329],[42.9252,38.4188],[42.9243,38.4279],[42.939,38.4329],[42.9252,38.4535],[42.9108,38.4467],[42.8702,38.4535],[42.8775,38.4608],[42.8722,38.4717],[42.8911,38.4741],[42.8702,38.4944],[42.8799,38.5006],[42.8763,38.5059],[42.8684,38.5047],[42.8566,38.4738],[42.8393,38.4697],[42.8019,38.4815],[42.798,38.4564],[42.7739,38.4402],[42.6918,38.4388],[42.6632,38.4723],[42.5988,38.4856],[42.5758,38.5079],[42.5417,38.4944],[42.5208,38.4741],[42.5013,38.4712],[42.4748,38.4841],[42.466,38.4944],[42.4698,38.5088],[42.4572,38.5168],[42.4098,38.4962],[42.3957,38.4959],[42.3842,38.5079],[42.3279,38.4873],[42.3082,38.4876],[42.2997,38.5077],[42.3097,38.518],[42.3497,38.5286],[42.3909,38.5771],[42.4201,38.5812],[42.4251,38.5868],[42.408,38.6074],[42.4107,38.618],[42.494,38.6248],[42.4728,38.6383],[42.4354,38.7037],[42.4383,38.7208],[42.4678,38.7367],[42.6008,38.7785],[42.7091,38.7932],[42.7333,38.8035],[42.8019,38.7926],[42.8098,38.7855],[42.9164,38.7967],[42.9564,38.7844],[43.0924,38.8041],[43.1757,38.8444],[43.2069,38.8918],[43.1778,38.9003],[43.1451,38.8992],[43.1374,38.9059],[43.1101,38.878],[43.1439,38.8803],[43.1478,38.8653],[43.1295,38.8518],[43.0971,38.8582],[43.0721,38.893],[43.0659,38.9256],[43.0721,38.9309],[43.1619,38.948],[43.2034,38.9401],[43.2711,38.9624],[43.3155,38.9542],[43.3088,38.981],[43.3273,38.9683],[43.3506,38.9674],[43.3535,38.9848],[43.4015,39.0016],[43.5422,38.981],[43.5902,38.981],[43.6591,38.9468],[43.6446,38.9401],[43.6591,38.9327],[43.5348,38.9133],[43.5213,38.8853],[43.5013,38.8712],[43.4289,38.8588],[43.39,38.8226],[43.3697,38.8409],[43.3391,38.8459],[43.3088,38.8356],[43.292,38.7791],[43.2446,38.7699],[43.2196,38.7549],[43.211,38.7208],[43.1763,38.6857],[43.156,38.6375],[43.083,38.6119],[43.083,38.6042],[43.0898,38.6042],[43.1239,38.6195],[43.1907,38.6207],[43.2166,38.5868],[43.2711,38.5695],[43.3161,38.5424],[43.3253,38.4865],[43.3064,38.4397],[43.2673,38.4402],[43.1843,38.389],[43.1625,38.3828],[43.1475,38.3655],[43.1507,38.3222],[43.1042,38.3143]]]}},{"type":"Feature","properties":{"name":"Dead Sea"},"geometry":{"type":"Polygon","coordinates":[[[35.5264,31.1889],[35.5311,31.1697],[35.5037,31.1391],[35.5178,31.1103],[35.4855,31.0885],[35.4593,31.0873],[35.4007,31.1009],[35.3883,31.1418],[35.3636,31.1756],[35.3586,31.2104],[35.3698,31.2354],[35.4007,31.2304],[35.4213,31.2516],[35.4613,31.2192],[35.5264,31.1889]]]}},{"type":"Feature","properties":{"name":"Lake Hammar"},"geometry":{"type":"MultiPolygon","coordinates":[[[[46.7319,30.7576],[46.7699,30.7506],[46.7699,30.7438],[46.7561,30.7438],[46.7622,30.7241],[46.6872,30.7506],[46.7319,30.7576]]],[[[47.6244,30.7046],[47.6333,30.6826],[47.5408,30.662],[47.5302,30.6761],[47.517,30.662],[47.4799,30.6593],[47.4755,30.6481],[47.4278,30.6481],[47.4043,30.6578],[47.3998,30.6858],[47.3889,30.7002],[47.1908,30.7097],[47.1199,30.7367],[47.0919,30.7376],[47.1049,30.7553],[47.0955,30.7644],[47.0054,30.7417],[46.9904,30.7329],[47.0027,30.7241],[46.9851,30.7197],[46.9683,30.7303],[46.9821,30.7506],[46.9345,30.7582],[46.925,30.7662],[46.9342,30.7794],[46.9268,30.7924],[46.9083,30.7974],[46.8832,30.7918],[46.845,30.7644],[46.9065,30.7438],[46.91,30.7294],[46.8585,30.7097],[46.8285,30.715],[46.8085,30.7229],[46.7902,30.7438],[46.8517,30.7785],[46.8517,30.7847],[46.8235,30.7921],[46.7967,30.7847],[46.7829,30.7991],[46.804,30.8271],[46.716,30.8103],[46.7078,30.8194],[46.6942,30.8194],[46.6942,30.8271],[46.7352,30.8468],[46.7266,30.8642],[46.6913,30.876],[46.6804,30.8886],[46.7266,30.8901],[46.749,30.8957],[46.7622,30.9089],[46.7749,30.9042],[46.7967,30.929],[46.7899,30.9081],[46.8043,30.8954],[46.8108,30.9089],[46.807,30.9242],[46.8311,30.9322],[46.8453,30.9113],[46.9003,30.9151],[46.8929,30.8966],[46.9003,30.8816],[46.9065,30.9022],[46.9683,30.8742],[46.9615,30.8607],[46.9804,30.8574],[47.0304,30.8194],[47.0236,30.8127],[47.0437,30.8071],[47.0887,30.8401],[47.1131,30.8371],[47.1223,30.8306],[47.0919,30.8271],[47.0919,30.8194],[47.112,30.8127],[47.1361,30.8192],[47.1535,30.8059],[47.1738,30.8165],[47.1923,30.8094],[47.2218,30.7785],[47.2059,30.7735],[47.2076,30.7576],[47.2694,30.7582],[47.3121,30.7441],[47.3407,30.75],[47.4037,30.8194],[47.5035,30.8127],[47.5146,30.7991],[47.4826,30.7759],[47.4375,30.7582],[47.3795,30.7582],[47.3981,30.7344],[47.4266,30.7303],[47.4985,30.7447],[47.5285,30.7417],[47.5408,30.7303],[47.5821,30.7356],[47.5991,30.7303],[47.5991,30.7241],[47.5717,30.7303],[47.5818,30.7167],[47.6244,30.7046]]]]}}]}