{"type":"FeatureCollection","features":[{"type":"Feature","properties":{"name":"Dicle"},"geometry":{"type":"LineString","coordinates":[[39.1731,38.4244],[39.2127,38.4244],[39.2882,38.4671],[39.4026,38.5034],[39.509,38.5169],[39.5388,38.4864],[39.6209,38.463],[39.6467,38.4318],[39.6455,38.4071],[39.6894,38.377],[39.7297,38.3698],[39.8149,38.387],[39.9845,38.3768],[40.0304,38.3333],[40.0264,38.2916],[40.1178,38.2566],[40.1912,38.2002],[40.1397,38.114],[40.2053,38.1098],[40.2669,38.0835],[40.2389,37.991],[40.2594,37.8985],[40.232,37.8743],[40.2568,37.8389],[40.4151,37.8084],[40.5185,37.8355],[40.6772,37.8438],[40.7592,37.8067],[40.8433,37.8308],[41.0348,37.7717],[41.0885,37.7814],[41.1172,37.7661],[41.1754,37.7672],[41.2175,37.7429],[41.5473,37.7407],[41.6622,37.7708],[41.7127,37.7495],[41.7643,37.7553],[41.7861,37.7405],[41.8261,37.6387],[41.8604,37.5928],[41.8276,37.4698],[41.8339,37.4439],[41.8696,37.4195],[42.0278,37.4317],[42.1923,37.3499],[42.2221,37.3142],[42.2227,37.2884],[42.2667,37.2747],[42.2916,37.2853],[42.3526,37.2273],[42.3349,37.1715],[42.354,37.1526],[42.3766,37.0625]]}},{"type":"Feature","properties":{"name":"Tigris"},"geometry":{"type":"MultiLineString","coordinates":[[[42.3766,37.0625],[42.3975,37.0171],[42.4526,36.9655],[42.488,36.9551],[42.5075,36.9731],[42.504,36.9217],[42.5206,36.9185],[42.5156,36.8873],[42.5349,36.8632],[42.5087,36.8618],[42.5147,36.8434],[42.566,36.8366],[42.6124,36.7894],[42.6904,36.7996],[42.7813,36.7403],[42.7496,36.7275],[42.754,36.7115],[42.7997,36.7264],[42.8433,36.6926],[42.8611,36.7105],[42.8921,36.7062],[42.8775,36.6715],[42.9055,36.6635],[42.9044,36.6467],[42.8865,36.6354],[42.8311,36.6431],[42.8223,36.6026],[42.754,36.5523],[42.7511,36.5054],[42.9356,36.4907],[42.98,36.47],[42.9688,36.4334],[43.0007,36.4093],[43.0488,36.3909],[43.124,36.3977],[43.1171,36.3802],[43.1723,36.3289],[43.186,36.2879],[43.1723,36.2879],[43.205,36.2384],[43.303,36.1414],[43.2986,36.0816],[43.3362,36.0331],[43.3459,35.9799],[43.3294,35.9185],[43.3566,35.9042],[43.3608,35.8807],[43.3316,35.8528],[43.3157,35.8633],[43.3091,35.7949]],[[43.3091,35.7949],[43.2905,35.7891],[43.2883,35.7354],[43.3225,35.7088],[43.3186,35.6943],[43.2809,35.6852],[43.2413,35.6446],[43.2672,35.606],[43.2407,35.5542],[43.276,35.4715],[43.2695,35.4116],[43.3648,35.3451],[43.3505,35.2805],[43.4225,35.2654],[43.3845,35.2225],[43.3971,35.201],[43.4937,35.1107],[43.5401,35.089],[43.5348,35.0682],[43.5839,35.0306],[43.5221,34.9327],[43.5392,34.9173],[43.5774,34.7895],[43.6358,34.7674],[43.6402,34.7437],[43.6759,34.7128],[43.6651,34.6915],[43.6938,34.6635],[43.7162,34.5537],[43.7698,34.5297],[43.7818,34.3727],[43.8277,34.2864],[43.8294,34.223],[43.8706,34.1844],[43.8948,34.1328],[43.9714,34.0854],[44.1949,34.056],[44.2337,34.0323],[44.2914,34.0417],[44.3779,34.0013],[44.4477,33.9355],[44.444,33.8802],[44.3894,33.7836],[44.4258,33.7247],[44.3853,33.6299],[44.3227,33.6135],[44.3262,33.5742],[44.3086,33.5501],[44.3111,33.4811],[44.3484,33.4453],[44.3447,33.3988],[44.3904,33.3255],[44.3796,33.2947],[44.4478,33.2891],[44.4894,33.233],[44.4868,33.1731],[44.5505,33.1362],[44.5764,33.0729],[44.6122,33.0772],[44.6321,33.0391],[44.6657,33.0162],[44.7385,33.0233],[44.728,32.9742],[44.7763,32.9865],[44.8144,32.9573],[44.8394,32.9721],[44.8658,32.9371],[44.917,32.9233],[44.9692,32.876],[45.0601,32.8948],[45.0644,32.878],[45.0269,32.8467],[45.1035,32.7863],[45.137,32.7945],[45.1786,32.7771],[45.2673,32.7743],[45.2792,32.752],[45.2558,32.6934],[45.3061,32.6892],[45.3347,32.648],[45.3789,32.6482],[45.4263,32.5736],[45.5117,32.5952],[45.5293,32.5767],[45.5263,32.5344],[45.5844,32.5555],[45.6277,32.5384],[45.6606,32.564],[45.6983,32.556],[45.7358,32.5175],[45.7911,32.5314],[45.8091,32.5022]],[[43.3091,35.7949],[43.3088,35.7944],[43.3157,35.7944],[43.3091,35.7949]],[[45.8069,32.5109],[45.8316,32.5125],[45.8639,32.5452],[45.9252,32.5511],[45.9648,32.6102],[46.1043,32.6546],[46.1619,32.6409],[46.2338,32.5652],[46.3489,32.5283],[46.4816,32.5294],[46.6731,32.4707],[46.7495,32.3582],[46.707,32.3182],[46.7218,32.2573],[46.6919,32.2114],[46.7195,32.1288],[46.7891,32.0751],[46.8301,32.0794],[46.8628,32.0621],[46.8993,31.9486],[46.9656,31.8692],[47.0128,31.8631],[47.0987,31.8959],[47.1348,31.8638],[47.1261,31.8099],[47.1498,31.7114],[47.1834,31.6953],[47.1943,31.6414],[47.2358,31.6094],[47.2837,31.5315],[47.336,31.5108],[47.3745,31.4725],[47.3756,31.4194],[47.434,31.3751],[47.4141,31.3236],[47.4412,31.2475],[47.4265,31.1809],[47.4557,31.1492],[47.4209,31.107],[47.434,31.0188]]]}},{"type":"Feature","properties":{"name":"Gharraf Canal"},"geometry":{"type":"LineString","coordinates":[[45.8091,32.5022],[45.8157,32.4555],[45.8723,32.4439],[45.9312,32.4068],[45.9405,32.3887],[45.9202,32.3378],[45.9308,32.3002],[45.9202,32.2862],[45.9576,32.2312],[45.9995,32.2163],[46.0113,32.1968],[46.0157,32.1491],[45.9617,32.0362],[45.9815,31.9983],[45.956,31.9412],[45.992,31.8986],[46.0498,31.8885],[46.0759,31.863],[46.1293,31.5018],[46.1536,31.4833],[46.228,31.3226],[46.2896,31.2627],[46.3462,31.2438],[46.3704,31.2027],[46.3652,31.1833],[46.4185,31.1619],[46.4097,31.0995],[46.3661,31.0554],[46.4,31.0167],[46.3662,30.9636]]}},{"type":"Feature","properties":{"name":"Rosetta Branch"},"geometry":{"type":"LineString","coordinates":[[31.2369,30.1238],[31.2284,30.1411],[31.1663,30.1559],[31.0676,30.2215],[30.991,30.2152],[30.9697,30.2733],[30.9268,30.2917],[30.9168,30.336],[30.8824,30.3457],[30.8511,30.3261],[30.8329,30.3337],[30.833,30.3616],[30.8793,30.3727],[30.8442,30.4012],[30.8511,30.4531],[30.8305,30.4974],[30.8511,30.5458],[30.8237,30.5521],[30.8374,30.5869],[30.8045,30.6133],[30.7935,30.6944],[30.7741,30.7163],[30.7922,30.7635],[30.7549,30.7644],[30.7701,30.8005],[30.8162,30.827],[30.7617,30.827],[30.7935,30.8682],[30.7568,30.8858],[30.7822,30.9226],[30.7515,30.9766],[30.7634,30.9835],[30.7276,31.0188],[30.7276,31.0523],[30.6991,31.092],[30.6519,31.1144],[30.5699,31.1995],[30.5252,31.1964],[30.5147,31.2379],[30.4942,31.2379],[30.52,31.2893],[30.5181,31.328],[30.4832,31.3544],[30.4736,31.3397],[30.458,31.3479],[30.4483,31.3749],[30.4259,31.3847],[30.4246,31.429],[30.3985,31.4434]]}},{"type":"Feature","properties":{"name":"Mur"},"geometry":{"type":"LineString","coordinates":[[17.3141,46.0],[17.2896,45.9849],[17.3267,45.9723],[17.3374,45.9849],[17.3449,45.9559],[17.3887,45.9633],[17.4057,45.9439],[17.4262,45.9569],[17.5115,45.9542],[17.5907,45.9365],[17.6453,45.8921],[17.656,45.8456],[17.8086,45.8146],[17.8576,45.772],[17.8892,45.7924],[18.0798,45.7719],[18.2107,45.7857],[18.2827,45.7652],[18.3069,45.7357],[18.3764,45.722],[18.3926,45.7037],[18.4819,45.6923],[18.4888,45.669],[18.5918,45.628],[18.6403,45.5806],[18.773,45.5552],[18.9275,45.5528]]}},{"type":"Feature","properties":{"name":"Suez Canal"},"geometry":{"type":"LineString","coordinates":[[32.561,30.1807],[32.538,30.2426],[32.4307,30.2903],[32.3595,30.4243]]}},{"type":"Feature","properties":{"name":"Suez Canal"},"geometry":{"type":"MultiLineString","coordinates":[[[32.3599,30.4236],[32.3228,30.5406],[32.2966,30.5664],[32.3341,30.645],[32.3443,30.7206],[32.3178,30.8128],[32.3027,31.2565],[32.3139,31.2727]],[[32.5608,30.1815],[32.5777,30.0114]]]}},{"type":"Feature","properties":{"name":"Damietta Branch"},"geometry":{"type":"LineString","coordinates":[[31.1453,30.1753],[31.1111,30.2268],[31.1036,30.3323],[31.0558,30.3746],[31.1065,30.3824],[31.1011,30.4162],[31.125,30.4027],[31.1358,30.4462],[31.2278,30.5179],[31.2278,30.5595],[31.2618,30.5521],[31.251,30.565],[31.2703,30.6609],[31.2136,30.8369],[31.2545,30.8536],[31.2346,30.8817],[31.2551,30.8885],[31.2416,30.8991],[31.2618,30.9226],[31.2551,30.9636],[31.2968,30.9841],[31.3056,31.0169],[31.3373,31.0412],[31.3945,31.0548],[31.4749,31.1833],[31.5049,31.1727],[31.5151,31.1964],[31.6134,31.1954],[31.6318,31.2168],[31.6254,31.243],[31.676,31.2589],[31.6592,31.2783],[31.666,31.2925],[31.6929,31.291],[31.6865,31.3062],[31.7169,31.3463],[31.7169,31.3818],[31.8106,31.4222],[31.8046,31.4581],[31.8447,31.5253]]}},{"type":"Feature","properties":{"name":"Ismailiya Canal"},"geometry":{"type":"LineString","coordinates":[[31.2376,30.1207],[31.297,30.1314],[31.4048,30.3262],[31.5147,30.3821],[31.7187,30.5367],[32.3035,30.593]]}},{"type":"Feature","properties":{"name":"Jordan"},"geometry":{"type":"MultiLineString","coordinates":[[[35.5989,32.8997],[35.5942,32.7667],[35.5769,32.7203]],[[35.4229,31.3254],[35.4524,31.4011],[35.4796,31.6414],[35.5271,31.7353],[35.559,31.7655]]]}},{"type":"Feature","properties":{"name":"Jordan"},"geometry":{"type":"MultiLineString","coordinates":[[[35.8639,33.5964],[35.8163,33.5528],[35.8034,33.5115],[35.7164,33.4543],[35.665,33.389],[35.5934,33.1813],[35.584,32.9959],[35.5989,32.8997]],[[35.5769,32.7203],[35.5581,32.6813],[35.5795,32.5606],[35.559,32.5532],[35.5652,32.5259],[35.5514,32.5191],[35.5795,32.4918],[35.5608,32.4774],[35.572,32.457],[35.5447,32.4098],[35.5652,32.3682],[35.5514,32.375],[35.572,32.2521],[35.559,32.2379],[35.572,32.2379],[35.559,32.1553],[35.5347,32.111],[35.5447,32.087],[35.5224,32.0581],[35.5454,31.9448],[35.5241,31.9195],[35.559,31.7655]],[[35.4234,31.3248],[35.3953,31.2579],[35.4006,31.2305]]]}},{"type":"Feature","properties":{"name":"Danube"},"geometry":{"type":"MultiLineString","coordinates":[[[18.7082,46.0],[18.8315,45.8955],[18.8315,45.8751],[18.8539,45.8592],[18.8482,45.8098],[18.8997,45.7652],[18.9168,45.7069],[18.9621,45.6833],[18.9624,45.6603],[18.9119,45.6195],[18.9031,45.5733],[18.9413,45.5393],[19.0176,45.5676],[19.1057,45.5119],[19.0766,45.4919],[19.009,45.4989],[19.0025,45.4556],[19.0368,45.4226],[18.9754,45.3952],[19.0205,45.3575],[19.0913,45.3503],[19.0983,45.3201],[19.1243,45.2984],[19.3627,45.2485],[19.5296,45.2669],[19.5986,45.2279],[19.6985,45.2467],[19.8108,45.2279],[19.8809,45.2823],[19.9143,45.2689],[19.9856,45.1898],[20.2224,45.1755],[20.3459,45.0731],[20.3569,45.0345],[20.2907,44.9775],[20.3189,44.9344],[20.3969,44.8646],[20.4551,44.8403],[20.5459,44.8398],[20.5803,44.8574],[20.6364,44.8494],[20.6333,44.7652],[20.7637,44.6684],[20.8832,44.6727],[20.9895,44.7168],[21.1638,44.7479],[21.1889,44.7783],[21.2695,44.8137],[21.3601,44.8267],[21.4116,44.7851],[21.5776,44.7779],[21.6192,44.7142],[21.6557,44.6879],[21.7563,44.6775],[21.855,44.6988],[21.9938,44.6588],[22.0864,44.522],[22.1477,44.5012],[22.1846,44.5154],[22.3045,44.6776],[22.3801,44.7008],[22.4255,44.7339],[22.4684,44.7304],[22.5869,44.6496],[22.6995,44.6309],[22.7648,44.5831],[22.7411,44.5521],[22.6995,44.5421],[22.6206,44.5694],[22.5798,44.5657],[22.5479,44.512],[22.4836,44.5],[22.4765,44.4642],[22.5049,44.4352],[22.5222,44.3753],[22.5823,44.3287],[22.6811,44.3055],[22.6901,44.2292],[22.9059,44.1231],[23.0305,44.0933],[23.0396,44.0626],[23.0225,44.0318],[22.8854,43.9947],[22.85,43.8972],[22.863,43.8557],[22.9191,43.8345],[23.1314,43.8482],[23.3246,43.8868]],[[23.3246,43.8868],[23.3264,43.887],[23.3196,43.887],[23.3246,43.8868]],[[23.3246,43.8868],[23.4841,43.8808],[23.6355,43.8324],[23.7422,43.843],[23.7995,43.8187],[24.1589,43.7532],[24.3577,43.7603],[24.4657,43.8027],[24.7051,43.744],[24.9631,43.7499],[25.0811,43.7192],[25.2519,43.7049],[25.359,43.6545],[25.4026,43.6503],[25.5561,43.6707],[25.6709,43.7176],[25.7805,43.7322],[25.9335,43.8706],[26.0537,43.9346],[26.1157,43.9991],[26.31,44.0528],[26.7532,44.1083],[26.8836,44.1568],[27.0269,44.1773],[27.0996,44.1447],[27.2262,44.1209],[27.2922,44.1514],[27.461,44.1376],[27.5688,44.1954],[27.7327,44.2097],[27.7886,44.2397],[27.9673,44.2804],[28.0479,44.3981],[28.11,44.4425],[28.0859,44.5045],[28.0037,44.5397],[28.0213,44.5523],[28.0305,44.6369],[27.9778,44.6791],[27.8984,44.708],[27.8774,44.7653],[27.8289,44.7791],[27.8147,44.8128],[27.8788,44.8821],[27.8942,44.957],[27.8767,45.0048],[27.9518,45.1284],[27.9381,45.1618],[27.9417,45.2242],[28.0181,45.3431],[28.0344,45.402],[28.1066,45.43],[28.1852,45.4156],[28.2017,45.4431],[28.2371,45.4523],[28.2858,45.422],[28.2808,45.402],[28.3103,45.3481],[28.3526,45.3127],[28.5766,45.2484],[28.747,45.2307]]]}},{"type":"Feature","properties":{"name":"Ferenc Csatorna"},"geometry":{"type":"LineString","coordinates":[[18.8919,46.0],[18.8837,45.9703],[18.9065,45.9439],[18.9065,45.916],[18.8723,45.8955],[18.9065,45.8682],[18.8547,45.8576]]}},{"type":"Feature","properties":{"name":"Tisa"},"geometry":{"type":"LineString","coordinates":[[20.0688,46.0],[20.0944,45.9926],[20.0989,45.9473],[20.1336,45.8989],[20.0859,45.8644],[20.1404,45.8266],[20.1621,45.7425],[20.0921,45.7174],[20.1018,45.6531],[20.0629,45.6034],[20.1218,45.5983],[20.103,45.5376],[20.2297,45.443],[20.2019,45.3952],[20.2639,45.3406],[20.236,45.3065],[20.3014,45.2586],[20.3186,45.2093],[20.2888,45.1837],[20.2776,45.142]]}},{"type":"Feature","properties":{"name":"Atshan"},"geometry":{"type":"LineString","coordinates":[[44.7861,31.4639],[44.824,31.4571],[44.8531,31.4018],[45.0125,31.3692],[45.0688,31.3226],[45.125,31.3062],[45.1384,31.3161],[45.1782,31.284],[45.1987,31.3168],[45.2349,31.3267]]}},{"type":"Feature","properties":{"name":"Morava"},"geometry":{"type":"LineString","coordinates":[[21.346,42.2417],[21.3661,42.3818],[21.4365,42.4006],[21.4944,42.4392],[21.5996,42.4653],[21.5834,42.492],[21.5996,42.514],[21.668,42.52],[21.7173,42.4737],[21.7922,42.4754],[21.9218,42.5416],[22.0317,42.6373],[22.1282,42.8614],[22.0413,42.9543],[22.0298,43.0216],[21.9821,43.0533],[21.9504,43.1204],[21.8488,43.2159],[21.8262,43.2842],[21.7915,43.3122],[21.7642,43.3941],[21.7766,43.4102],[21.758,43.4351],[21.7509,43.5072],[21.7163,43.5313],[21.6406,43.5449],[21.6406,43.5791],[21.6228,43.5871],[21.5447,43.6185],[21.4898,43.6138],[21.5034,43.6275],[21.4824,43.6337],[21.4761,43.6685],[21.455,43.6509],[21.4197,43.6591],[21.4053,43.7188],[21.3779,43.7286],[21.3743,43.7982],[21.339,43.8056],[21.3601,43.8398],[21.339,43.8944],[21.3521,43.8973],[21.3464,43.9291],[21.3743,43.9565],[21.355,43.9591],[21.3601,43.9763],[21.3362,43.989],[21.339,44.0179],[21.3049,44.0179],[21.2775,44.0521],[21.1951,44.0794],[21.1791,44.1466],[21.1433,44.1534],[21.1393,44.1855],[21.1546,44.1954],[21.1336,44.2097],[21.1546,44.2097],[21.1472,44.2438],[21.1682,44.2581],[21.1199,44.2923],[21.1199,44.3128],[21.1452,44.3173],[21.1101,44.371],[21.1313,44.4258],[21.1745,44.4356],[21.1472,44.4561],[21.1546,44.4766],[21.1745,44.4766],[21.1546,44.4841],[21.1608,44.5045],[21.1199,44.525],[21.1404,44.5637],[21.1177,44.5987],[21.0852,44.6008],[21.0878,44.6197],[21.0662,44.644],[21.079,44.6553],[21.051,44.6752],[21.0584,44.6964],[21.0373,44.7217]]}},{"type":"Feature","properties":{"name":"Evros"},"geometry":{"type":"LineString","coordinates":[[23.676,42.2775],[23.741,42.3219],[23.8581,42.3199],[23.9087,42.2897],[23.924,42.2586],[24.0031,42.2254],[24.0942,42.2434],[24.2307,42.2254],[24.4047,42.1501],[24.9468,42.1671],[25.0297,42.1492],[25.1152,42.1813],[25.1529,42.1605],[25.1494,42.1466],[25.2144,42.1199],[25.242,42.1378],[25.3085,42.1314],[25.4498,42.0987],[25.5016,42.0694],[25.6343,42.0673],[25.739,42.0236],[25.8108,42.0236],[25.8521,42.0441],[25.8897,42.0168],[25.9054,41.9618],[25.9718,41.9007],[26.0623,41.8876],[26.1021,41.8455],[26.1567,41.8188],[26.1602,41.794],[26.2114,41.7508],[26.2734,41.7152],[26.3591,41.7152],[26.5608,41.6548],[26.6018,41.5854],[26.5949,41.5377],[26.6358,41.3998],[26.6221,41.3406],[26.5907,41.3295],[26.5396,41.3521],[26.4115,41.2659],[26.3201,41.2464],[26.3355,41.2292],[26.3206,41.1879],[26.3355,41.1528],[26.3168,41.1225],[26.339,41.1148],[26.3246,41.0743],[26.3472,41.0412],[26.3736,41.0314],[26.3676,41.0079],[26.3326,40.991],[26.3585,40.9649],[26.294,40.9269],[26.3035,40.9093],[26.2598,40.9207],[26.2388,40.8859],[26.2256,40.8996],[26.2053,40.8653],[26.2114,40.8477],[26.1577,40.8124],[26.1118,40.7473],[26.044,40.7385]]}},{"type":"Feature","properties":{"name":"Tevere"},"geometry":{"type":"LineString","coordinates":[[12.052,43.7652],[12.0314,43.7386],[12.0664,43.6138],[12.0466,43.5865],[12.1389,43.5542],[12.1719,43.5067],[12.2221,43.4786],[12.2527,43.3668],[12.3142,43.3464],[12.3098,43.3248],[12.3626,43.2917],[12.458,43.164],[12.4446,43.117],[12.465,43.103],[12.424,43.0589],[12.4172,43.031],[12.4309,43.0242],[12.3967,42.9764],[12.3904,42.8959],[12.3688,42.8671],[12.4036,42.8392],[12.3688,42.8324],[12.4036,42.7908],[12.2732,42.7362],[12.2322,42.702],[12.1974,42.702],[12.2026,42.6839],[12.2405,42.639],[12.2453,42.5854],[12.2714,42.566],[12.28,42.5103],[12.3005,42.4898],[12.3427,42.4918],[12.3933,42.4623],[12.4172,42.4283],[12.4514,42.4208],[12.4309,42.3929],[12.465,42.3929],[12.4546,42.3529],[12.4861,42.3253],[12.4724,42.3184],[12.491,42.2983],[12.5469,42.2935],[12.5606,42.2706],[12.5742,42.2911],[12.5846,42.2722],[12.6022,42.2775],[12.6298,42.2414],[12.6294,42.2222],[12.6111,42.2377],[12.6061,42.1918],[12.6379,42.1563],[12.6188,42.1098],[12.543,42.069],[12.5537,42.0516],[12.5154,42.0386],[12.4922,41.9442],[12.4582,41.9343],[12.4749,41.8915],[12.4595,41.8361],[12.4172,41.8319],[12.4103,41.8045],[12.2974,41.799],[12.2732,41.7772],[12.2793,41.7613],[12.2322,41.7425]]}},{"type":"Feature","properties":{"name":"Kiz?lirmak"},"geometry":{"type":"LineString","coordinates":[[37.6608,39.8797],[37.4788,39.869],[37.1396,39.7938],[36.9091,39.7088],[36.8608,39.7377],[36.6139,39.6914],[36.5356,39.6368],[36.464,39.6095],[36.4086,39.557],[36.3715,39.4947],[36.1119,39.3253],[36.0657,39.2762],[35.9617,39.2311],[35.9474,39.1746],[35.8461,39.1262],[35.7986,39.0758],[35.6904,39.0345],[35.5606,39.0413],[35.5263,38.987],[35.4959,38.9715],[35.3901,38.9764],[35.3181,38.958],[35.2913,38.9354],[35.2922,38.9022],[35.2415,38.8869],[35.1619,38.8286],[35.0243,38.7586],[34.9054,38.739],[34.8074,38.7521],[34.7507,38.778],[34.6343,38.7737],[34.5292,38.8281],[34.3687,38.8632],[34.3171,38.9084],[34.1943,38.9693],[34.1784,39.0091],[34.1563,39.0226],[34.0226,39.0638],[33.9614,39.0629],[33.9018,39.1059],[33.8095,39.1099],[33.6734,39.1704],[33.5046,39.3087],[33.4555,39.3269],[33.4448,39.3874],[33.4081,39.3995],[33.3951,39.4258],[33.4031,39.5179],[33.4331,39.6033],[33.4524,39.6318],[33.4888,39.6463],[33.4463,39.6812],[33.4734,39.707],[33.4854,39.7796],[33.4617,39.8034],[33.4822,39.8245],[33.4181,39.8712],[33.4252,39.9327],[33.4138,39.9475],[33.4419,39.981],[33.4607,40.0834],[33.5635,40.1531],[33.5834,40.2195],[33.6199,40.2491],[33.6261,40.2901],[33.6514,40.2944],[33.6602,40.331],[33.8243,40.3387],[33.8657,40.359],[33.9342,40.3599],[33.9551,40.3453],[33.9888,40.3583],[34.032,40.4008],[34.0302,40.4204],[34.1128,40.4819],[34.2409,40.4862],[34.5326,40.6343],[34.6463,40.6458],[34.7203,40.7071],[34.7244,40.7321],[34.8556,40.8318],[34.8662,40.8688],[34.8389,40.8828],[34.8662,40.9064],[34.8328,40.9753],[34.7656,41.0024],[34.7273,40.9855],[34.4627,41.1005],[34.4373,41.1265],[34.4507,41.1412],[34.7546,41.1489],[34.8761,41.2331],[34.8881,41.2698],[34.9418,41.2999],[34.9439,41.326],[34.9912,41.3349],[35.1133,41.3998],[35.1472,41.3322],[35.1958,41.3111],[35.1848,41.2991],[35.3399,41.2545],[35.4132,41.2757],[35.4519,41.3249],[35.506,41.3074],[35.6262,41.3643],[35.759,41.371],[35.8071,41.4209],[35.8469,41.4346],[35.8459,41.5139],[35.8967,41.5871],[35.9153,41.6463]]}},{"type":"Feature","properties":{"name":"Bratul Chillia"},"geometry":{"type":"LineString","coordinates":[[29.6587,45.2165],[29.6718,45.2732],[29.6497,45.3464],[29.5693,45.3952],[29.3217,45.4441],[29.2813,45.4226],[29.2276,45.424],[29.1738,45.3892],[28.9732,45.3239],[28.9524,45.2853],[28.9293,45.2794],[28.8313,45.3225],[28.7893,45.3216],[28.7896,45.2923],[28.759,45.2744],[28.8022,45.2444],[28.747,45.2307],[28.7947,45.2028],[28.7955,45.1847],[28.8473,45.1965],[28.8831,45.18]]}},{"type":"Feature","properties":{"name":"Sava"},"geometry":{"type":"LineString","coordinates":[[15.468,46.0],[15.5,45.9569],[15.5971,45.9368],[15.6875,45.87],[15.81,45.8409],[15.867,45.7916],[15.9839,45.7883],[16.0488,45.7652],[16.083,45.7924],[16.1404,45.7934],[16.1553,45.772],[16.227,45.7589],[16.2133,45.7037],[16.2476,45.7037],[16.2526,45.6724],[16.3418,45.6449],[16.3368,45.6218],[16.3562,45.6205],[16.3437,45.6007],[16.4058,45.5733],[16.3798,45.5368],[16.4263,45.5256],[16.4058,45.4982],[16.4058,45.5119],[16.3853,45.5119],[16.3877,45.4849],[16.4399,45.443],[16.5366,45.4092],[16.5833,45.43],[16.5951,45.4132],[16.6795,45.389],[16.687,45.3648],[16.731,45.3771],[16.7893,45.3406],[16.7825,45.3201],[16.8218,45.3173],[16.803,45.2791],[16.8543,45.2699],[16.8804,45.282],[16.8964,45.2684],[16.9238,45.2849],[16.9468,45.2359],[16.9675,45.2376],[16.9607,45.2512],[16.9981,45.2316],[17.0078,45.2444],[17.0078,45.2165],[17.0358,45.2307],[17.0552,45.2007],[17.1865,45.1488],[17.2449,45.1556],[17.2686,45.1898],[17.382,45.1398],[17.4428,45.1623],[17.4575,45.1464],[17.4473,45.1345],[17.4958,45.142],[17.4815,45.1147],[17.572,45.1207],[17.6294,45.1576],[17.6843,45.1643],[17.8352,45.0648],[17.9107,45.0814],[18.0029,45.1496],[18.0898,45.1082],[18.1531,45.0978],[18.1919,45.1088],[18.2018,45.1444],[18.2373,45.1577],[18.3218,45.1231],[18.4115,45.1127],[18.5165,45.0561],[18.5405,45.0555],[18.5344,45.0907],[18.6087,45.1004],[18.6482,45.0629],[18.6836,45.0851],[18.7378,45.0161],[18.7885,45.006],[18.8041,44.9741],[18.7721,44.9427],[18.7829,44.914],[18.8892,44.8614],[19.0679,44.8751],[19.1863,44.9278],[19.2013,44.9086],[19.3097,44.9126],[19.3498,44.8973],[19.3249,44.9223],[19.3864,44.9154],[19.3957,44.9318],[19.3726,44.9434],[19.4101,44.9601],[19.4478,44.9564],[19.4499,44.9717],[19.4849,44.9838],[19.6464,44.9636],[19.6675,44.9361],[19.7568,44.9154],[19.7007,44.8076],[19.729,44.7578],[19.7966,44.7516],[19.914,44.6954],[20.01,44.6889],[19.9308,44.6593],[19.9207,44.6479],[19.9404,44.6318],[20.1261,44.7168],[20.1865,44.6827],[20.2375,44.7237],[20.2361,44.6903],[20.2743,44.6647],[20.3613,44.7841],[20.4412,44.8104],[20.4551,44.8403]]}},{"type":"Feature","properties":{"name":"Bratul Sfintu Gheorghe"},"geometry":{"type":"LineString","coordinates":[[28.8831,45.18],[29.1394,45.0733],[29.1584,45.0873],[29.1304,45.101],[29.1687,45.1168],[29.2046,45.0919],[29.1963,45.0498],[29.2813,45.0389],[29.3125,44.9702],[29.3919,44.9837],[29.3792,44.9625],[29.3949,44.9495],[29.4561,44.9703],[29.6109,44.8881]]}},{"type":"Feature","properties":{"name":"Nile"},"geometry":{"type":"LineString","coordinates":[[32.8794,23.9877],[32.8633,23.8938],[32.9185,23.7852],[32.9185,23.7487],[32.873,23.6317],[32.8564,23.5389],[32.8941,23.4918],[32.8987,23.4258],[32.9387,23.3625],[32.9428,23.3067],[32.8414,23.205],[32.8009,23.1966],[32.7052,23.0555],[32.6676,22.9716],[32.5923,22.9103],[32.5708,22.7718],[32.4542,22.7086],[32.3942,22.6265],[32.3735,22.6203],[32.2915,22.6341],[32.253,22.7097],[32.1847,22.7507],[32.0745,22.7259],[31.9941,22.6819],[31.9142,22.6017],[31.8608,22.4738],[31.7573,22.4285],[31.4189,22.1498],[31.3754,22.0753],[31.3599,22.0]]}},{"type":"Feature","properties":{"name":"Nile"},"geometry":{"type":"LineString","coordinates":[[32.8794,23.9877],[32.8727,24.0733],[32.8862,24.1262],[32.8727,24.231],[32.9067,24.303],[32.9072,24.4105],[32.9242,24.442],[32.8993,24.4532],[32.8779,24.4899],[32.934,24.6886],[32.9273,24.7691],[32.8652,24.9051],[32.8821,25.015],[32.8362,25.1049],[32.6162,25.2316],[32.5596,25.2831],[32.5537,25.4241],[32.4828,25.5498],[32.4879,25.586],[32.5955,25.6364],[32.6821,25.7754],[32.7644,25.8017],[32.7695,25.8237],[32.7285,25.882],[32.7858,26.0066],[32.7628,26.1116],[32.6491,26.1805],[32.6255,26.1737],[32.6057,26.1396],[32.4341,26.1116],[32.3746,26.0683],[32.324,26.0843],[32.2911,26.0365],[32.2659,26.0297],[32.2481,26.0357],[32.2271,26.1024],[32.1657,26.1426],[32.1171,26.2183],[32.0605,26.2215],[32.0415,26.1699],[32.0161,26.1805],[32.0127,26.2587],[31.8242,26.4134],[31.8084,26.5413],[31.7758,26.5667],[31.7039,26.5436],[31.7144,26.6256],[31.7026,26.6412],[31.6357,26.6498],[31.6283,26.6907],[31.5234,26.7994],[31.4815,26.9068],[31.3528,27.0237],[31.2798,27.1579],[31.1985,27.1744],[31.1638,27.2191],[31.1145,27.2016],[31.1111,27.2699],[31.0354,27.2835],[30.9662,27.3468],[30.9739,27.3723],[30.8782,27.4208],[30.8489,27.4598],[30.8648,27.4995],[30.8511,27.5777],[30.8994,27.6777],[30.8858,27.8011],[30.8442,27.8521],[30.8374,28.0377],[30.7463,28.1332],[30.7421,28.1794],[30.7564,28.2075],[30.7379,28.2622],[30.7412,28.3223],[30.7691,28.3803],[30.8352,28.4478],[30.8198,28.5076],[30.8445,28.5976],[30.8374,28.6267],[30.9073,28.76],[30.9101,28.8297],[31.0105,28.942],[31.053,29.0288],[31.1179,29.0723],[31.1594,29.1231],[31.2209,29.2331],[31.212,29.3482],[31.2278,29.3939],[31.2135,29.4286],[31.2803,29.5472],[31.2704,29.6252],[31.3036,29.6688],[31.2686,29.7334],[31.2968,29.8054],[31.2887,29.885],[31.2209,30.0078],[31.2369,30.1238]]}},{"type":"Feature","properties":{"name":"Bratul Sulina"},"geometry":{"type":"LineString","coordinates":[[28.8827,45.1798],[28.9695,45.1966],[29.011,45.1755],[29.4837,45.1693],[29.5315,45.1898],[29.6821,45.1488]]}},{"type":"Feature","properties":{"name":"Borcea"},"geometry":{"type":"LineString","coordinates":[[27.2922,44.1514],[27.349,44.1954],[27.4609,44.2137],[27.6534,44.2753],[27.698,44.3264],[27.8062,44.3428],[27.8694,44.4083],[27.9277,44.4331],[27.9341,44.4854],[27.8959,44.5023],[27.9252,44.5455],[27.9369,44.6453],[27.9077,44.6588],[27.8643,44.7176],[27.8767,44.7441]]}},{"type":"Feature","properties":{"name":"Prut"},"geometry":{"type":"LineString","coordinates":[[28.0861,46.0],[28.1245,45.9186],[28.1168,45.8955],[28.1305,45.8716],[28.11,45.8545],[28.1128,45.8255],[28.1546,45.762],[28.1675,45.6327],[28.1072,45.6246],[28.0616,45.5939],[28.1404,45.5605],[28.165,45.5285],[28.1655,45.4948],[28.2124,45.4505]]}},{"type":"Feature","properties":{"name":"Kuban"},"geometry":{"type":"LineString","coordinates":[[42.0725,43.2425],[42.0094,43.2792],[41.9982,43.41],[42.0987,43.4942],[42.1316,43.614],[42.1002,43.6463],[41.9337,43.6795],[41.9024,43.7565],[41.9316,43.7845],[41.8975,43.9476],[41.9057,43.9833],[42.0469,44.2313],[42.0278,44.2991],[42.0593,44.3273],[42.038,44.364],[41.9446,44.4029],[41.9185,44.4732],[41.939,44.5151],[41.9272,44.6249],[41.818,44.7108],[41.8012,44.7683],[41.8117,44.792],[41.7808,44.8335],[41.7369,44.853],[41.5951,44.8403],[41.3972,44.8472],[41.2942,44.894],[41.2532,44.9434],[41.1629,44.9929],[41.1165,45.0843],[41.0654,45.1114],[41.0683,45.1345],[41.0154,45.1979],[41.0343,45.2969],[41.0014,45.3315],[41.0081,45.3849],[40.9781,45.4101],[40.9033,45.4337],[40.8355,45.4226],[40.6637,45.431],[40.5841,45.4154],[40.561,45.3815],[40.5235,45.3952],[40.4707,45.3773],[40.4146,45.3939],[40.3487,45.3543],[40.3315,45.3815],[40.273,45.3474],[40.0696,45.3341],[40.0027,45.2963],[39.9467,45.285],[39.9057,45.2308],[39.8753,45.2376],[39.8407,45.2141],[39.7156,45.1835],[39.6349,45.1935],[39.564,45.1823],[39.4599,45.0985],[39.3445,45.0352],[39.3242,45.0013],[39.1907,44.9739],[39.1292,44.9837],[39.0776,44.9638],[38.985,44.9837],[38.9708,45.0048],[38.9209,45.0165],[38.908,45.0398],[38.8648,45.0184],[38.8557,44.9954],[38.8064,44.9837],[38.7701,44.9976],[38.7239,45.047],[38.6835,45.0594],[38.613,45.0529],[38.5921,45.0722],[38.5112,45.0939],[38.4631,45.0782],[38.449,45.0999],[38.3582,45.125],[38.2931,45.1693],[38.2768,45.1589],[38.2441,45.1755],[38.1559,45.1345],[38.1128,45.1524],[38.0016,45.1284],[37.9301,45.142],[37.8067,45.1085],[37.7921,45.1147],[37.7944,45.1378],[37.7654,45.1476],[37.5845,45.1321],[37.5034,45.1699],[37.4212,45.1854],[37.3814,45.2123],[37.3821,45.308]]}},{"type":"Feature","properties":{"name":"Mincio"},"geometry":{"type":"LineString","coordinates":[[10.6904,45.4505],[10.7019,45.3823],[10.7178,45.3673],[10.6973,45.3201],[10.7153,45.2934],[10.6773,45.2471],[10.6904,45.1724],[10.7903,45.1656],[10.8649,45.1147],[10.9272,45.1037],[10.978,45.0731]]}},{"type":"Feature","properties":{"name":"Hindiyah Channel"},"geometry":{"type":"LineString","coordinates":[[44.3539,32.241],[44.3849,32.1417],[44.433,32.1007],[44.531,32.0531],[44.5497,32.0057],[44.5838,31.9778],[44.6013,31.8833],[44.6314,31.8549],[44.5989,31.8229],[44.6109,31.7618],[44.5668,31.7128],[44.5632,31.6147]]}},{"type":"Feature","properties":{"name":"Shatt al Hillah"},"geometry":{"type":"LineString","coordinates":[[44.2685,32.7313],[44.3159,32.6939],[44.3482,32.6432],[44.3374,32.6282],[44.3709,32.6016],[44.4014,32.6132],[44.438,32.4846],[44.4887,32.4274],[44.666,32.3944],[44.7278,32.4098],[44.7379,32.3645],[44.783,32.2999],[44.8171,32.2788],[44.8054,32.2611],[44.8242,32.1522],[44.8097,32.07],[44.8961,32.0302],[44.9719,31.9715],[44.981,31.9294],[44.9407,31.849],[44.9841,31.7888],[44.9941,31.7147],[45.2983,31.4567],[45.3168,31.4024],[45.2792,31.3829],[45.207,31.3881]]}},{"type":"Feature","properties":{"name":""},"geometry":{"type":"LineString","coordinates":[[27.9865,45.2922],[28.0411,45.2582],[28.1221,45.2496],[28.1305,45.2376],[28.0976,45.184],[28.1777,45.1345],[28.1313,45.0889],[28.1411,44.9597],[28.124,44.9447],[28.1248,44.8915],[28.0798,44.8406],[28.0698,44.7958],[28.0138,44.7578],[27.9456,44.7783],[27.8836,44.7578]]}},{"type":"Feature","properties":{"name":"Euphrates"},"geometry":{"type":"MultiLineString","coordinates":[[[40.9926,34.4285],[41.1057,34.3693],[41.1612,34.3741],[41.219,34.396],[41.1782,34.4239],[41.2239,34.4492],[41.2395,34.4512],[41.2677,34.4163],[41.288,34.4239],[41.297,34.4568],[41.4319,34.4239],[41.4038,34.4598],[41.4244,34.4724],[41.4456,34.4587],[41.4511,34.4282],[41.5139,34.4376],[41.5274,34.4239],[41.5889,34.445],[41.5951,34.4792],[41.7134,34.4565],[41.7695,34.4918],[41.7803,34.5216],[41.8421,34.4746],[41.9678,34.4717],[42.0304,34.3893],[42.1253,34.3325],[42.1445,34.2792],[42.2447,34.3149],[42.252,34.2735],[42.2776,34.2713],[42.2969,34.347],[42.3357,34.3496],[42.384,34.3209],[42.3853,34.2901],[42.367,34.2669],[42.3251,34.2573],[42.3152,34.2259],[42.3875,34.1912],[42.371,34.0882],[42.4046,34.0714],[42.4246,34.017],[42.4461,34.0124],[42.4939,34.0472],[42.5559,33.9715],[42.5562,33.9257],[42.5206,33.8963],[42.5281,33.869],[42.5826,33.848],[42.6167,33.8963],[42.6441,33.9017],[42.7334,33.8758],[42.7593,33.8535],[42.7192,33.807],[42.7475,33.7466],[42.7124,33.7182],[42.7472,33.6978],[42.7621,33.7045],[42.85,33.6358],[42.9321,33.5299],[43.011,33.5326],[43.0657,33.4938],[43.0972,33.5333],[43.1187,33.537],[43.1689,33.519],[43.2647,33.4492],[43.308,33.449],[43.3566,33.4718],[43.3845,33.4513],[43.4367,33.4505],[43.4443,33.428],[43.4869,33.4309],[43.4805,33.4151],[43.4949,33.404],[43.5553,33.4234],[43.5664,33.4008],[43.6305,33.3735],[43.6446,33.3967],[43.7271,33.3346],[43.7545,33.3489],[43.7613,33.3005],[43.7852,33.3036],[43.8085,33.2521],[43.8159,33.2657],[43.8367,33.2607],[43.8433,33.2049],[43.8609,33.1828],[43.879,33.1817],[43.878,33.2049],[43.9068,33.2122],[43.9561,33.1558],[43.9889,33.1695],[44.0698,33.1422],[44.0357,33.1292],[44.1021,33.0894],[44.1384,33.0308],[44.1586,33.0323],[44.1784,32.9863],[44.1753,32.9344],[44.2022,32.9256],[44.2149,32.8886],[44.253,32.8795],[44.2896,32.7996],[44.2203,32.6077],[44.2226,32.5703],[44.2954,32.4666],[44.288,32.4101],[44.3543,32.2746],[44.3435,32.2037],[44.3572,32.118],[44.4467,32.0019],[44.4778,31.9357],[44.5042,31.7659],[44.4742,31.7045],[44.4942,31.6592],[44.614,31.6001],[44.6793,31.5253],[44.7586,31.4912],[44.7765,31.4681],[44.8517,31.4912],[44.935,31.4307],[44.9879,31.4434],[45.0459,31.4161],[45.1325,31.428],[45.2003,31.4018],[45.2376,31.3277]],[[45.2376,31.3277],[45.3364,31.3255],[45.4404,31.2988],[45.4669,31.3052]],[[45.2376,31.3277],[45.2378,31.3273],[45.2349,31.3267],[45.2376,31.3277]],[[45.4631,31.3052],[45.4745,31.3074],[45.532,31.2878],[45.5291,31.2516],[45.5667,31.2032],[45.6168,31.2062],[45.6874,31.1622],[45.7432,31.1764],[45.8945,31.1287],[45.9959,31.1144],[46.0405,31.1263],[46.1044,31.0719],[46.252,31.0445],[46.363,30.9654],[46.4272,30.95],[46.4674,30.9018],[46.5115,30.8837],[46.7482,30.9618],[46.9504,30.9598],[47.009,30.9793],[47.1179,30.965],[47.2559,30.9704],[47.2974,30.95],[47.3209,30.9766],[47.4334,31.0164],[47.4532,31.015],[47.4685,30.9685]]]}},{"type":"Feature","properties":{"name":""},"geometry":{"type":"LineString","coordinates":[[30.7549,30.7644],[30.685,30.8736],[30.4094,31.0995],[30.1684,31.1378],[30.0457,31.1876],[29.9583,31.2494]]}},{"type":"Feature","properties":{"name":"Firat"},"geometry":{"type":"MultiLineString","coordinates":[[[38.7678,38.8128],[38.7781,38.845],[38.8126,38.875],[38.7778,38.905],[38.7865,38.9813],[38.7395,39.0784]],[[38.4713,38.7408],[38.4605,38.6925],[38.3871,38.6603],[38.3489,38.5956],[38.3735,38.5366],[38.4029,38.5081],[38.4142,38.5168],[38.4687,38.4793],[38.5667,38.4647],[38.689,38.4208],[38.8105,38.4404],[38.8855,38.3641],[38.9573,38.3305],[39.0733,38.348]],[[38.9827,37.8994],[38.978,37.8303],[38.9214,37.8251],[38.8889,37.7887],[38.9306,37.8076],[38.9539,37.8014],[38.9648,37.7613],[38.8889,37.7409],[38.9231,37.7136],[38.8824,37.7149],[38.8494,37.6933],[38.8207,37.7067],[38.8004,37.697],[38.8683,37.6515],[38.6456,37.6242],[38.4949,37.5007],[38.3269,37.4903]]]}},{"type":"Feature","properties":{"name":"Firat"},"geometry":{"type":"MultiLineString","coordinates":[[[41.4555,40.1802],[41.319,40.005],[41.2769,39.9816],[41.0265,39.961],[40.8702,39.9195],[40.7686,39.9406],[40.689,39.9207],[40.4685,39.9536],[40.3829,39.9338],[40.303,39.9404],[40.1604,39.9],[40.1401,39.8557],[40.2511,39.7636],[40.2594,39.7283],[40.199,39.6738],[40.1837,39.5926],[40.1018,39.5601],[39.9099,39.5843],[39.5751,39.694],[39.4507,39.701],[39.4089,39.694],[39.3064,39.6307],[39.2012,39.6116],[39.0479,39.6161],[38.976,39.5919],[38.8658,39.5822],[38.8269,39.557],[38.7556,39.5453],[38.7115,39.5003],[38.6399,39.5128],[38.5708,39.4949],[38.5225,39.4574],[38.4581,39.454],[38.3614,39.3994],[38.3682,39.3714],[38.4251,39.3185],[38.5807,39.2249],[38.6199,39.1717],[38.7114,39.166],[38.7146,39.1213],[38.7356,39.1053],[38.7395,39.0785]],[[38.7678,38.8128],[38.677,38.7646],[38.6358,38.7818],[38.6187,38.7483],[38.5089,38.7569],[38.4713,38.7408]],[[39.0733,38.348],[39.1148,38.3436],[39.145,38.3079],[39.1148,38.1927],[39.1414,38.1787],[39.2219,38.2051],[39.2525,38.1797],[39.2564,38.1531],[39.2249,38.0638],[39.1499,38.0208],[39.0723,37.9996],[39.0405,37.9252],[38.9827,37.8994]],[[38.3269,37.4903],[38.272,37.4764],[38.2499,37.4486],[38.2067,37.4536],[38.1802,37.4119],[38.0945,37.4536],[38.0655,37.4369],[37.9897,37.4448],[37.8964,37.3638],[37.8521,37.3038],[37.8406,37.2679],[37.8668,37.2494],[37.8748,37.2133],[37.8526,37.2265],[37.8406,37.2031],[37.8762,37.1309],[37.8694,37.0652],[37.9225,37.042],[37.9788,37.0501],[37.9639,36.9988],[38.0079,36.9571],[38.0186,36.9042],[38.0405,36.8805],[38.0211,36.8711],[38.0258,36.8356]]]}},{"type":"Feature","properties":{"name":"Volga"},"geometry":{"type":"LineString","coordinates":[[47.717,46.0],[47.6436,45.9612],[47.6475,45.9296],[47.6254,45.8802],[47.6332,45.8341],[47.5387,45.807],[47.5558,45.7661]]}},{"type":"Feature","properties":{"name":"Al Furat"},"geometry":{"type":"LineString","coordinates":[[38.5611,35.8626],[38.4601,35.8588],[38.3001,35.9168],[38.1749,35.973],[38.0849,36.0542],[38.0619,36.1408],[38.1199,36.225],[38.1894,36.2649],[38.1838,36.3425]]}},{"type":"Feature","properties":{"name":"Al Furat"},"geometry":{"type":"MultiLineString","coordinates":[[[38.0258,36.8356],[38.0325,36.7813],[38.046,36.7403],[38.0665,36.7403],[38.0667,36.7096],[38.0976,36.6789],[38.2105,36.6481],[38.2931,36.528],[38.2671,36.5123],[38.2561,36.4628],[38.2031,36.4388],[38.1838,36.3425]],[[38.56,35.8633],[38.6078,35.8701],[38.6596,35.8497],[38.7214,35.8497],[38.7409,35.8532],[38.7592,35.8838],[38.7388,35.89],[38.7429,35.9103],[38.7996,35.9117],[38.8132,35.9316],[39.0343,35.9293],[39.0881,35.8838],[39.1412,35.8863],[39.2442,35.8597],[39.2834,35.8292],[39.3961,35.8497],[39.3998,35.8115],[39.4165,35.8012],[39.4923,35.8087],[39.5537,35.7808],[39.5911,35.7929],[39.5821,35.7658],[39.5947,35.7603],[39.6223,35.7946],[39.7426,35.7318],[39.766,35.7534],[39.8053,35.7352],[39.8355,35.6817],[39.8323,35.6256],[39.856,35.5889],[39.8894,35.5889],[39.8775,35.5694],[39.8994,35.5616],[39.9168,35.5275],[39.9485,35.5348],[40.0593,35.461],[40.0772,35.4181],[40.1093,35.3953],[40.1018,35.3699],[40.1433,35.3562],[40.1702,35.3266],[40.2267,35.3089],[40.232,35.2879],[40.2669,35.3078],[40.2532,35.2669],[40.2935,35.2805],[40.3276,35.2669],[40.3385,35.2364],[40.4177,35.2116],[40.3972,35.1849],[40.4287,35.1353],[40.4307,35.0825],[40.4386,35.0668],[40.4711,35.0667],[40.4444,35.0349],[40.465,35.0307],[40.4922,34.9863],[40.5283,34.9893],[40.5657,34.9586],[40.581,34.8832],[40.5976,34.8707],[40.6226,34.8832],[40.6183,34.8336],[40.6383,34.7968],[40.6983,34.7808],[40.7665,34.7181],[40.7901,34.714],[40.8042,34.7288],[40.8286,34.6983],[40.8079,34.6704],[40.8389,34.6498],[40.8696,34.6704],[40.8917,34.6273],[40.9272,34.6185],[40.918,34.5782],[40.9448,34.5276],[40.9223,34.5008],[40.9306,34.4683],[40.9926,34.4285]]]}},{"type":"Feature","properties":{"name":"Shatt al Arab"},"geometry":{"type":"LineString","coordinates":[[47.4685,30.9685],[47.6196,30.7849],[47.7288,30.7438],[47.7556,30.5853],[47.8214,30.5498],[47.8743,30.4876],[48.1301,30.4477],[48.17,30.4069],[48.1997,30.3241],[48.3053,30.3131],[48.4083,30.2026],[48.3806,30.1456],[48.4236,30.0838],[48.4526,30.0017],[48.5318,29.9612]]}},{"type":"Feature","properties":{"name":"Po"},"geometry":{"type":"LineString","coordinates":[[10.0,45.122],[10.0717,45.0374],[10.1834,45.0464],[10.3503,44.9839],[10.3989,44.9912],[10.4434,44.9365],[10.5212,44.916],[10.6011,44.9223],[10.6633,44.9651],[10.6904,45.0184],[10.6699,45.035],[10.6742,45.0493],[10.7007,45.0594],[10.8176,45.0452],[10.9362,45.0799],[11.0635,45.0532],[11.1287,45.0694],[11.2726,45.0594],[11.2725,45.0337],[11.4189,44.9667],[11.4317,44.9376],[11.5247,44.9398],[11.6221,44.895],[11.7971,44.9775],[12.0522,44.9798],[12.0881,44.9912],[12.0603,45.0184],[12.1414,45.0303],[12.2422,45.0048],[12.325,44.9576],[12.5339,44.97]]}}]}